start=new Date('2023-04-19T00:00:00.000Z').valueOf();
sats=[{"INCLINATION":"70.0011","RCS_SIZE":"LARGE","MEAN_MOTION_DDOT":"0.0000000000000","MEAN_MOTION":"14.98327218","RA_OF_ASC_NODE":"56.6755","PERIOD":"96.107","CLASSIFICATION_TYPE":"U","ELEMENT_SET_NO":"999","EPOCH":"2023-04-18T19:42:44.779968","NORAD_CAT_ID":"49180","APOAPSIS":"573.922","DECAY_DATE":null,"GP_ID":"230328914","COUNTRY_CODE":"US","REV_AT_EPOCH":"8948","CENTER_NAME":"EARTH","ARG_OF_PERICENTER":"263.6974","PERIAPSIS":"570.211","OBJECT_NAME":"STARLINK-3050","SITE":"AFWTR","ECCENTRICITY":"0.00026690","SEMIMAJOR_AXIS":"6950.201","REF_FRAME":"TEME","MEAN_ELEMENT_THEORY":"SGP4","OBJECT_ID":"2021-082BC","MEAN_ANOMALY":"96.3881","TLE_LINE1":"1 49180U 21082BC  23108.82135162  .00000421  00000-0  43104-4 0  9990","LAUNCH_DATE":"2021-09-14","MEAN_MOTION_DOT":"0.00000421","EPHEMERIS_TYPE":"0","BSTAR":"0.00004310400000","OBJECT_TYPE":"PAYLOAD","FILE":"3889987","TIME_SYSTEM":"UTC","TLE_LINE2":"2 49180  70.0011  56.6755 0002669 263.6974  96.3881 14.98327218 89486"},{"PERIOD":"96.107","CLASSIFICATION_TYPE":"U","MEAN_MOTION":"14.98332536","RA_OF_ASC_NODE":"77.0893","RCS_SIZE":"LARGE","MEAN_MOTION_DDOT":"0.0000000000000","INCLINATION":"70.0005","COUNTRY_CODE":"US","REV_AT_EPOCH":"8898","ARG_OF_PERICENTER":"269.3477","CENTER_NAME":"EARTH","GP_ID":"230329662","DECAY_DATE":null,"NORAD_CAT_ID":"49181","APOAPSIS":"574.109","ELEMENT_SET_NO":"999","EPOCH":"2023-04-18T15:48:44.822304","REF_FRAME":"TEME","MEAN_ELEMENT_THEORY":"SGP4","OBJECT_ID":"2021-082BD","MEAN_ANOMALY":"90.7343","PERIAPSIS":"569.991","SITE":"AFWTR","OBJECT_NAME":"STARLINK-3059","ECCENTRICITY":"0.00029620","SEMIMAJOR_AXIS":"6950.185","OBJECT_TYPE":"PAYLOAD","FILE":"3889987","TLE_LINE2":"2 49181  70.0005  77.0893 0002962 269.3477  90.7343 14.98332536 88981","TIME_SYSTEM":"UTC","BSTAR":"0.00001933500000","EPHEMERIS_TYPE":"0","TLE_LINE1":"1 49181U 21082BD  23108.65885211  .00000138  00000-0  19335-4 0  9993","LAUNCH_DATE":"2021-09-14","MEAN_MOTION_DOT":"0.00000138"},{"MEAN_MOTION_DDOT":"0.0000000000000","RCS_SIZE":"LARGE","INCLINATION":"53.2155","MEAN_MOTION":"15.08839440","RA_OF_ASC_NODE":"289.3023","PERIOD":"95.438","CLASSIFICATION_TYPE":"U","ELEMENT_SET_NO":"999","EPOCH":"2023-04-18T18:41:41.286912","NORAD_CAT_ID":"49408","APOAPSIS":"540.521","DECAY_DATE":null,"GP_ID":"230330434","REV_AT_EPOCH":"7922","COUNTRY_CODE":"US","ARG_OF_PERICENTER":"91.6379","CENTER_NAME":"EARTH","PERIAPSIS":"538.973","SEMIMAJOR_AXIS":"6917.882","SITE":"AFETR","OBJECT_NAME":"STARLINK-3151","ECCENTRICITY":"0.00011190","MEAN_ELEMENT_THEORY":"SGP4","OBJECT_ID":"2021-104A","REF_FRAME":"TEME","MEAN_ANOMALY":"268.4741","TLE_LINE1":"1 49408U 21104A   23108.77895008  .00002079  00000-0  14865-3 0  9996","MEAN_MOTION_DOT":"0.00002079","LAUNCH_DATE":"2021-11-13","EPHEMERIS_TYPE":"0","BSTAR":"0.00014865000000","FILE":"3889987","OBJECT_TYPE":"PAYLOAD","TLE_LINE2":"2 49408  53.2155 289.3023 0001119  91.6379 268.4741 15.08839440 79226","TIME_SYSTEM":"UTC"},{"MEAN_MOTION_DDOT":"0.0000000000000","RCS_SIZE":"LARGE","INCLINATION":"53.2155","RA_OF_ASC_NODE":"289.2194","MEAN_MOTION":"15.08847992","CLASSIFICATION_TYPE":"U","PERIOD":"95.437","EPOCH":"2023-04-18T19:02:52.306944","ELEMENT_SET_NO":"999","APOAPSIS":"540.558","NORAD_CAT_ID":"49409","DECAY_DATE":null,"GP_ID":"230330682","CENTER_NAME":"EARTH","ARG_OF_PERICENTER":"99.8025","REV_AT_EPOCH":"7923","COUNTRY_CODE":"US","SEMIMAJOR_AXIS":"6917.856","SITE":"AFETR","OBJECT_NAME":"STARLINK-3075","ECCENTRICITY":"0.00012100","PERIAPSIS":"538.884","MEAN_ANOMALY":"260.3104","MEAN_ELEMENT_THEORY":"SGP4","OBJECT_ID":"2021-104B","REF_FRAME":"TEME","MEAN_MOTION_DOT":"0.00001925","LAUNCH_DATE":"2021-11-13","TLE_LINE1":"1 49409U 21104B   23108.79366096  .00001925  00000-0  13894-3 0  9999","EPHEMERIS_TYPE":"0","BSTAR":"0.00013894000000","TLE_LINE2":"2 49409  53.2155 289.2194 0001210  99.8025 260.3104 15.08847992 79231","TIME_SYSTEM":"UTC","FILE":"3889987","OBJECT_TYPE":"PAYLOAD"},{"RA_OF_ASC_NODE":"289.2541","MEAN_MOTION":"15.08827605","CLASSIFICATION_TYPE":"U","PERIOD":"95.438","RCS_SIZE":"LARGE","INCLINATION":"53.2160","MEAN_MOTION_DDOT":"0.0000000000000","DECAY_DATE":null,"GP_ID":"230328936","CENTER_NAME":"EARTH","ARG_OF_PERICENTER":"81.3444","COUNTRY_CODE":"US","REV_AT_EPOCH":"7922","EPOCH":"2023-04-18T18:52:17.812992","ELEMENT_SET_NO":"999","APOAPSIS":"540.657","NORAD_CAT_ID":"49410","MEAN_ANOMALY":"278.7692","REF_FRAME":"TEME","MEAN_ELEMENT_THEORY":"SGP4","OBJECT_ID":"2021-104C","ECCENTRICITY":"0.00012630","SITE":"AFETR","OBJECT_NAME":"STARLINK-3147","SEMIMAJOR_AXIS":"6917.918","PERIAPSIS":"538.910","BSTAR":"-0.00003751700000","TIME_SYSTEM":"UTC","TLE_LINE2":"2 49410  53.2160 289.2541 0001263  81.3444 278.7692 15.08827605 79227","OBJECT_TYPE":"PAYLOAD","FILE":"3889987","LAUNCH_DATE":"2021-11-13","MEAN_MOTION_DOT":"-0.00000885","TLE_LINE1":"1 49410U 21104C   23108.78631728 -.00000885  00000-0 -37517-4 0  9992","EPHEMERIS_TYPE":"0"},{"LAUNCH_DATE":"2021-11-13","MEAN_MOTION_DOT":"0.00000462","TLE_LINE1":"1 49411U 21104D   23108.71362587  .00000462  00000-0  47116-4 0  9995","EPHEMERIS_TYPE":"0","BSTAR":"0.00004711600000","TIME_SYSTEM":"UTC","TLE_LINE2":"2 49411  53.2154 279.5782 0001060  95.0454 265.0659 15.08839569 79356","OBJECT_TYPE":"PAYLOAD","FILE":"3889987","OBJECT_NAME":"STARLINK-3162","SITE":"AFETR","ECCENTRICITY":"0.00010600","SEMIMAJOR_AXIS":"6917.882","PERIAPSIS":"539.013","MEAN_ANOMALY":"265.0659","REF_FRAME":"TEME","OBJECT_ID":"2021-104D","MEAN_ELEMENT_THEORY":"SGP4","EPOCH":"2023-04-18T17:07:37.275168","ELEMENT_SET_NO":"999","APOAPSIS":"540.480","NORAD_CAT_ID":"49411","GP_ID":"230329684","DECAY_DATE":null,"CENTER_NAME":"EARTH","ARG_OF_PERICENTER":"95.0454","COUNTRY_CODE":"US","REV_AT_EPOCH":"7935","RCS_SIZE":"LARGE","MEAN_MOTION_DDOT":"0.0000000000000","INCLINATION":"53.2154","RA_OF_ASC_NODE":"279.5782","MEAN_MOTION":"15.08839569","CLASSIFICATION_TYPE":"U","PERIOD":"95.438"},{"PERIAPSIS":"539.039","SITE":"AFETR","ECCENTRICITY":"0.00009720","OBJECT_NAME":"STARLINK-3144","SEMIMAJOR_AXIS":"6917.847","REF_FRAME":"TEME","OBJECT_ID":"2021-104E","MEAN_ELEMENT_THEORY":"SGP4","MEAN_ANOMALY":"282.5220","TLE_LINE1":"1 49412U 21104E   23108.78998098  .00001493  00000-0  11183-3 0  9994","LAUNCH_DATE":"2021-11-13","MEAN_MOTION_DOT":"0.00001493","EPHEMERIS_TYPE":"0","BSTAR":"0.00011183000000","OBJECT_TYPE":"PAYLOAD","FILE":"3889987","TIME_SYSTEM":"UTC","TLE_LINE2":"2 49412  53.2169 289.2381 0000972  77.5880 282.5220 15.08851015 79230","MEAN_MOTION_DDOT":"0.0000000000000","RCS_SIZE":"LARGE","INCLINATION":"53.2169","MEAN_MOTION":"15.08851015","RA_OF_ASC_NODE":"289.2381","PERIOD":"95.437","CLASSIFICATION_TYPE":"U","ELEMENT_SET_NO":"999","EPOCH":"2023-04-18T18:57:34.356672","NORAD_CAT_ID":"49412","APOAPSIS":"540.384","DECAY_DATE":null,"GP_ID":"230329935","COUNTRY_CODE":"US","REV_AT_EPOCH":"7923","CENTER_NAME":"EARTH","ARG_OF_PERICENTER":"77.5880"},{"DECAY_DATE":null,"GP_ID":"230330183","COUNTRY_CODE":"US","REV_AT_EPOCH":"7937","CENTER_NAME":"EARTH","ARG_OF_PERICENTER":"87.7890","ELEMENT_SET_NO":"999","EPOCH":"2023-04-18T20:14:28.362912","NORAD_CAT_ID":"49413","APOAPSIS":"540.419","MEAN_MOTION":"15.08858505","RA_OF_ASC_NODE":"279.0069","PERIOD":"95.436","CLASSIFICATION_TYPE":"U","MEAN_MOTION_DDOT":"0.0000000000000","RCS_SIZE":"LARGE","INCLINATION":"53.2148","BSTAR":"0.00203360000000","OBJECT_TYPE":"PAYLOAD","FILE":"3889987","TIME_SYSTEM":"UTC","TLE_LINE2":"2 49413  53.2148 279.0069 0001056  87.7890 272.3223 15.08858505 79372","TLE_LINE1":"1 49413U 21104F   23108.84338383  .00032242  00000-0  20336-2 0  9992","LAUNCH_DATE":"2021-11-13","MEAN_MOTION_DOT":"0.00032242","EPHEMERIS_TYPE":"0","REF_FRAME":"TEME","OBJECT_ID":"2021-104F","MEAN_ELEMENT_THEORY":"SGP4","MEAN_ANOMALY":"272.3223","PERIAPSIS":"538.958","SITE":"AFETR","ECCENTRICITY":"0.00010560","OBJECT_NAME":"STARLINK-3157","SEMIMAJOR_AXIS":"6917.824"},{"ELEMENT_SET_NO":"999","EPOCH":"2023-04-18T17:11:35.829888","NORAD_CAT_ID":"49414","APOAPSIS":"540.391","DECAY_DATE":null,"GP_ID":"230329436","COUNTRY_CODE":"US","REV_AT_EPOCH":"7921","ARG_OF_PERICENTER":"76.4793","CENTER_NAME":"EARTH","RCS_SIZE":"LARGE","MEAN_MOTION_DDOT":"0.0000000000000","INCLINATION":"53.2157","MEAN_MOTION":"15.08842986","RA_OF_ASC_NODE":"289.5692","PERIOD":"95.437","CLASSIFICATION_TYPE":"U","TLE_LINE1":"1 49414U 21104G   23108.71638692  .00002923  00000-0  20166-3 0  9990","LAUNCH_DATE":"2021-11-13","MEAN_MOTION_DOT":"0.00002923","EPHEMERIS_TYPE":"0","BSTAR":"0.00020166000000","OBJECT_TYPE":"PAYLOAD","FILE":"3889987","TLE_LINE2":"2 49414  53.2157 289.5692 0000946  76.4793 283.6304 15.08842986 79219","TIME_SYSTEM":"UTC","PERIAPSIS":"539.082","OBJECT_NAME":"STARLINK-3146","SITE":"AFETR","ECCENTRICITY":"0.00009460","SEMIMAJOR_AXIS":"6917.871","REF_FRAME":"TEME","OBJECT_ID":"2021-104G","MEAN_ELEMENT_THEORY":"SGP4","MEAN_ANOMALY":"283.6304"},{"CENTER_NAME":"EARTH","ARG_OF_PERICENTER":"100.9070","REV_AT_EPOCH":"7934","COUNTRY_CODE":"US","DECAY_DATE":null,"GP_ID":"230329185","APOAPSIS":"540.589","NORAD_CAT_ID":"49415","EPOCH":"2023-04-18T16:57:01.488672","ELEMENT_SET_NO":"999","CLASSIFICATION_TYPE":"U","PERIOD":"95.438","RA_OF_ASC_NODE":"279.6116","MEAN_MOTION":"15.08829616","RCS_SIZE":"LARGE","INCLINATION":"53.2155","MEAN_MOTION_DDOT":"0.0000000000000","TLE_LINE2":"2 49415  53.2155 279.6116 0001173 100.9070 259.2054 15.08829616 79343","TIME_SYSTEM":"UTC","FILE":"3889987","OBJECT_TYPE":"PAYLOAD","BSTAR":"0.00025531000000","EPHEMERIS_TYPE":"0","MEAN_MOTION_DOT":"0.00003777","LAUNCH_DATE":"2021-11-13","TLE_LINE1":"1 49415U 21104H   23108.70626723  .00003777  00000-0  25531-3 0  9991","MEAN_ANOMALY":"259.2054","MEAN_ELEMENT_THEORY":"SGP4","OBJECT_ID":"2021-104H","REF_FRAME":"TEME","SEMIMAJOR_AXIS":"6917.912","SITE":"AFETR","ECCENTRICITY":"0.00011730","OBJECT_NAME":"STARLINK-3159","PERIAPSIS":"538.966"}];
